CCSDS_OMM_VERS = 2.0
CREATION_DATE  = 
ORIGINATOR     = 

OBJECT_NAME    = SL-3 R/B
OBJECT_ID      = 1982-079B
CENTER_NAME    = EARTH
REF_FRAME      = TEME
TIME_SYSTEM    = UTC
MEAN_ELEMENT_THEORY = SGP/SGP4

EPOCH          = 2025-12-11T13:32:46.977504
MEAN_MOTION    = 15.23563879
ECCENTRICITY   = .00271203
INCLINATION    = 81.1467
RA_OF_ASC_NODE = 297.0462
ARG_OF_PERICENTER = 102.7604
MEAN_ANOMALY   = 257.6662

EPHEMERIS_TYPE = 0
CLASSIFICATION_TYPE = U
NORAD_CAT_ID   = 13403
ELEMENT_SET_NO = 999
REV_AT_EPOCH   = 36427
BSTAR          = .37892693E-3
MEAN_MOTION_DOT = .9181E-4
MEAN_MOTION_DDOT = 0

CCSDS_OMM_VERS = 2.0
CREATION_DATE  = 
ORIGINATOR     = 

OBJECT_NAME    = SL-14 R/B
OBJECT_ID      = 1982-092B
CENTER_NAME    = EARTH
REF_FRAME      = TEME
TIME_SYSTEM    = UTC
MEAN_ELEMENT_THEORY = SGP/SGP4

EPOCH          = 2025-12-11T15:57:28.141056
MEAN_MOTION    = 14.86553947
ECCENTRICITY   = .00190887
INCLINATION    = 82.5685
RA_OF_ASC_NODE = 223.7171
ARG_OF_PERICENTER = 230.8315
MEAN_ANOMALY   = 158.4325

EPHEMERIS_TYPE = 0
CLASSIFICATION_TYPE = U
NORAD_CAT_ID   = 13553
ELEMENT_SET_NO = 999
REV_AT_EPOCH   = 31585
BSTAR          = .79949425E-4
MEAN_MOTION_DOT = .734E-5
MEAN_MOTION_DDOT = 0

CCSDS_OMM_VERS = 2.0
CREATION_DATE  = 
ORIGINATOR     = 

OBJECT_NAME    = SL-3 R/B
OBJECT_ID      = 1983-010B
CENTER_NAME    = EARTH
REF_FRAME      = TEME
TIME_SYSTEM    = UTC
MEAN_ELEMENT_THEORY = SGP/SGP4

EPOCH          = 2025-12-11T14:31:19.036416
MEAN_MOTION    = 15.43406989
ECCENTRICITY   = .0017258
INCLINATION    = 81.1037
RA_OF_ASC_NODE = 110.0036
ARG_OF_PERICENTER = 355.0868
MEAN_ANOMALY   = 5.0203

EPHEMERIS_TYPE = 0
CLASSIFICATION_TYPE = U
NORAD_CAT_ID   = 13819
ELEMENT_SET_NO = 999
REV_AT_EPOCH   = 34434
BSTAR          = .44933698E-3
MEAN_MOTION_DOT = .20234E-3
MEAN_MOTION_DDOT = 0

CCSDS_OMM_VERS = 2.0
CREATION_DATE  = 
ORIGINATOR     = 

OBJECT_NAME    = SL-3 R/B
OBJECT_ID      = 1983-075B
CENTER_NAME    = EARTH
REF_FRAME      = TEME
TIME_SYSTEM    = UTC
MEAN_ELEMENT_THEORY = SGP/SGP4

EPOCH          = 2025-12-11T11:37:37.427808
MEAN_MOTION    = 15.36096158
ECCENTRICITY   = .00226067
INCLINATION    = 97.6110
RA_OF_ASC_NODE = 341.9256
ARG_OF_PERICENTER = 179.8215
MEAN_ANOMALY   = 180.3041

EPHEMERIS_TYPE = 0
CLASSIFICATION_TYPE = U
NORAD_CAT_ID   = 14208
ELEMENT_SET_NO = 999
REV_AT_EPOCH   = 31660
BSTAR          = .50776968E-3
MEAN_MOTION_DOT = .17938E-3
MEAN_MOTION_DDOT = 0

CCSDS_OMM_VERS = 2.0
CREATION_DATE  = 
ORIGINATOR     = 

OBJECT_NAME    = COSMOS 1536
OBJECT_ID      = 1984-013A
CENTER_NAME    = EARTH
REF_FRAME      = TEME
TIME_SYSTEM    = UTC
MEAN_ELEMENT_THEORY = SGP/SGP4

EPOCH          = 2025-12-11T02:20:26.751840
MEAN_MOTION    = 15.22487544
ECCENTRICITY   = .00134024
INCLINATION    = 82.5454
RA_OF_ASC_NODE = 195.7928
ARG_OF_PERICENTER = 232.0484
MEAN_ANOMALY   = 127.9542

EPHEMERIS_TYPE = 0
CLASSIFICATION_TYPE = U
NORAD_CAT_ID   = 14699
ELEMENT_SET_NO = 999
REV_AT_EPOCH   = 25913
BSTAR          = .34841442E-3
MEAN_MOTION_DOT = .812E-4
MEAN_MOTION_DDOT = 0

CCSDS_OMM_VERS = 2.0
CREATION_DATE  = 
ORIGINATOR     = 

OBJECT_NAME    = SL-14 R/B
OBJECT_ID      = 1984-027B
CENTER_NAME    = EARTH
REF_FRAME      = TEME
TIME_SYSTEM    = UTC
MEAN_ELEMENT_THEORY = SGP/SGP4

EPOCH          = 2025-12-11T09:51:24.924096
MEAN_MOTION    = 14.85872565
ECCENTRICITY   = .00163718
INCLINATION    = 82.5412
RA_OF_ASC_NODE = 327.8025
ARG_OF_PERICENTER = 265.6598
MEAN_ANOMALY   = 94.2748

EPHEMERIS_TYPE = 0
CLASSIFICATION_TYPE = U
NORAD_CAT_ID   = 14820
ELEMENT_SET_NO = 999
REV_AT_EPOCH   = 23452
BSTAR          = .10087317E-3
MEAN_MOTION_DOT = .904E-5
MEAN_MOTION_DDOT = 0

CCSDS_OMM_VERS = 2.0
CREATION_DATE  = 
ORIGINATOR     = 

OBJECT_NAME    = SL-8 R/B
OBJECT_ID      = 1985-006B
CENTER_NAME    = EARTH
REF_FRAME      = TEME
TIME_SYSTEM    = UTC
MEAN_ELEMENT_THEORY = SGP/SGP4

EPOCH          = 2025-12-11T11:44:26.841984
MEAN_MOTION    = 14.37720347
ECCENTRICITY   = .00186417
INCLINATION    = 74.0467
RA_OF_ASC_NODE = 63.4357
ARG_OF_PERICENTER = 355.9133
MEAN_ANOMALY   = 15.1982

EPHEMERIS_TYPE = 0
CLASSIFICATION_TYPE = U
NORAD_CAT_ID   = 15483
ELEMENT_SET_NO = 999
REV_AT_EPOCH   = 14135
BSTAR          = .15333944E-3
MEAN_MOTION_DOT = .436E-5
MEAN_MOTION_DDOT = 0

CCSDS_OMM_VERS = 2.0
CREATION_DATE  = 
ORIGINATOR     = 

OBJECT_NAME    = SL-12 R/B(2)
OBJECT_ID      = 1985-042D
CENTER_NAME    = EARTH
REF_FRAME      = TEME
TIME_SYSTEM    = UTC
MEAN_ELEMENT_THEORY = SGP/SGP4

EPOCH          = 2025-12-11T13:43:35.076000
MEAN_MOTION    = 14.21951501
ECCENTRICITY   = .00376357
INCLINATION    = 71.1086
RA_OF_ASC_NODE = 273.8869
ARG_OF_PERICENTER = 263.2174
MEAN_ANOMALY   = 270.0449

EPHEMERIS_TYPE = 0
CLASSIFICATION_TYPE = U
NORAD_CAT_ID   = 15772
ELEMENT_SET_NO = 999
REV_AT_EPOCH   = 10186
BSTAR          = .10405988E-3
MEAN_MOTION_DOT = .184E-5
MEAN_MOTION_DDOT = 0

CCSDS_OMM_VERS = 2.0
CREATION_DATE  = 
ORIGINATOR     = 

OBJECT_NAME    = SL-14 R/B
OBJECT_ID      = 1985-069B
CENTER_NAME    = EARTH
REF_FRAME      = TEME
TIME_SYSTEM    = UTC
MEAN_ELEMENT_THEORY = SGP/SGP4

EPOCH          = 2025-12-11T14:59:02.055840
MEAN_MOTION    = 14.86322641
ECCENTRICITY   = .00200954
INCLINATION    = 82.5266
RA_OF_ASC_NODE = 107.7514
ARG_OF_PERICENTER = 121.9380
MEAN_ANOMALY   = 238.3794

EPHEMERIS_TYPE = 0
CLASSIFICATION_TYPE = U
NORAD_CAT_ID   = 15945
ELEMENT_SET_NO = 999
REV_AT_EPOCH   = 15975
BSTAR          = .10800873E-3
MEAN_MOTION_DOT = .979E-5
MEAN_MOTION_DDOT = 0

CCSDS_OMM_VERS = 2.0
CREATION_DATE  = 
ORIGINATOR     = 

OBJECT_NAME    = SL-16 R/B
OBJECT_ID      = 1985-097B
CENTER_NAME    = EARTH
REF_FRAME      = TEME
TIME_SYSTEM    = UTC
MEAN_ELEMENT_THEORY = SGP/SGP4

EPOCH          = 2025-12-11T09:01:16.951296
MEAN_MOTION    = 14.16583196
ECCENTRICITY   = .00065864
INCLINATION    = 71.0032
RA_OF_ASC_NODE = 326.4744
ARG_OF_PERICENTER = 13.2078
MEAN_ANOMALY   = 92.0185

EPHEMERIS_TYPE = 0
CLASSIFICATION_TYPE = U
NORAD_CAT_ID   = 16182
ELEMENT_SET_NO = 999
REV_AT_EPOCH   = 7472
BSTAR          = .16295818E-3
MEAN_MOTION_DOT = .277E-5
MEAN_MOTION_DDOT = 0

CCSDS_OMM_VERS = 2.0
CREATION_DATE  = 
ORIGINATOR     = 

OBJECT_NAME    = SL-14 R/B
OBJECT_ID      = 1986-006B
CENTER_NAME    = EARTH
REF_FRAME      = TEME
TIME_SYSTEM    = UTC
MEAN_ELEMENT_THEORY = SGP/SGP4

EPOCH          = 2025-12-11T11:43:19.078464
MEAN_MOTION    = 14.86669812
ECCENTRICITY   = .00760595
INCLINATION    = 82.5264
RA_OF_ASC_NODE = 342.7286
ARG_OF_PERICENTER = 204.0025
MEAN_ANOMALY   = 155.7641

EPHEMERIS_TYPE = 0
CLASSIFICATION_TYPE = U
NORAD_CAT_ID   = 16496
ELEMENT_SET_NO = 999
REV_AT_EPOCH   = 13610
BSTAR          = .11202682E-3
MEAN_MOTION_DOT = .1075E-4
MEAN_MOTION_DDOT = 0

CCSDS_OMM_VERS = 2.0
CREATION_DATE  = 
ORIGINATOR     = 

OBJECT_NAME    = COSMOS 1743
OBJECT_ID      = 1986-034A
CENTER_NAME    = EARTH
REF_FRAME      = TEME
TIME_SYSTEM    = UTC
MEAN_ELEMENT_THEORY = SGP/SGP4

EPOCH          = 2025-12-11T11:51:16.735680
MEAN_MOTION    = 15.52049396
ECCENTRICITY   = .00046578
INCLINATION    = 82.5347
RA_OF_ASC_NODE = 165.8858
ARG_OF_PERICENTER = 258.9682
MEAN_ANOMALY   = 101.1047

EPHEMERIS_TYPE = 0
CLASSIFICATION_TYPE = U
NORAD_CAT_ID   = 16719
ELEMENT_SET_NO = 999
REV_AT_EPOCH   = 16654
BSTAR          = .79294832E-3
MEAN_MOTION_DOT = .4803E-3
MEAN_MOTION_DDOT = 0

