SL-3 R/B                
1 13403U 82079B   25345.56443261  .00009181  00000+0  37893-3 0  9998
2 13403  81.1467 297.0462 0027120 102.7604 257.6662 15.23563879364277
SL-14 R/B               
1 13553U 82092B   25345.66490904  .00000734  00000+0  79949-4 0  9990
2 13553  82.5685 223.7171 0019088 230.8315 158.4325 14.86553947315856
SL-3 R/B                
1 13819U 83010B   25345.60508144  .00020234  00000+0  44934-3 0  9998
2 13819  81.1037 110.0036 0017258 355.0868   5.0203 15.43406989344340
SL-3 R/B                
1 14208U 83075B   25345.48446097  .00017938  00000+0  50777-3 0  9995
2 14208  97.6110 341.9256 0022606 179.8215 180.3041 15.36096158316607
COSMOS 1536             
1 14699U 84013A   25345.09753185  .00008120  00000+0  34841-3 0  9995
2 14699  82.5454 195.7928 0013402 232.0484 127.9542 15.22487544259135
SL-14 R/B               
1 14820U 84027B   25345.41070514  .00000904  00000+0  10087-3 0  9998
2 14820  82.5412 327.8025 0016371 265.6598  94.2748 14.85872565234526
SL-8 R/B                
1 15483U 85006B   25345.48919956  .00000436  00000+0  15334-3 0  9991
2 15483  74.0467  63.4357 0018641 355.9133  15.1982 14.37720347141356
SL-12 R/B(2)            
1 15772U 85042D   25345.57193375  .00000184  00000+0  10406-3 0  9996
2 15772  71.1086 273.8869 0037635 263.2174 270.0449 14.21951501101860
SL-14 R/B               
1 15945U 85069B   25345.62432935  .00000979  00000+0  10801-3 0  9992
2 15945  82.5266 107.7514 0020095 121.9380 238.3794 14.86322641159750
SL-16 R/B               
1 16182U 85097B   25345.37589064  .00000277  00000+0  16296-3 0  9990
2 16182  71.0032 326.4744 0006586  13.2078  92.0185 14.16583196 74728
SL-14 R/B               
1 16496U 86006B   25345.48841526  .00001075  00000+0  11203-3 0  9995
2 16496  82.5264 342.7286 0076059 204.0025 155.7641 14.86669812136108
COSMOS 1743             
1 16719U 86034A   25345.49394370  .00048030  00000+0  79295-3 0  9992
2 16719  82.5347 165.8858 0004657 258.9682 101.1047 15.52049396166548
